HAWK-7A                 
1 56191U 23054P   26065.41084290  .00007900  00000+0  30847-3 0  9993
2 56191  97.2836 315.3624 0004763  58.0668 302.1034 15.26149730161342
HAWK-7B                 
1 56193U 23054R   26065.47633186  .00008039  00000+0  31387-3 0  9999
2 56193  97.2868 313.6516 0003848  67.8152 292.3495 15.26148479161350
HAWK-7C                 
1 56200U 23054Y   26065.41064848  .00007866  00000+0  30721-3 0  9993
2 56200  97.2841 314.3900 0003855  58.9781 301.1836 15.26148730161349
