[{"OBJECT_NAME":"HAWK-7A","OBJECT_ID":"2023-054P","EPOCH":"2026-03-06T09:51:36.826560","MEAN_MOTION":15.2614973,"ECCENTRICITY":0.00047637,"INCLINATION":97.2836,"RA_OF_ASC_NODE":315.3624,"ARG_OF_PERICENTER":58.0668,"MEAN_ANOMALY":302.1034,"EPHEMERIS_TYPE":0,"CLASSIFICATION_TYPE":"U","NORAD_CAT_ID":56191,"ELEMENT_SET_NO":999,"REV_AT_EPOCH":16134,"BSTAR":0.00030847172,"MEAN_MOTION_DOT":7.9e-5,"MEAN_MOTION_DDOT":0},{"OBJECT_NAME":"HAWK-7B","OBJECT_ID":"2023-054R","EPOCH":"2026-03-06T11:25:55.072704","MEAN_MOTION":15.26148479,"ECCENTRICITY":0.00038488,"INCLINATION":97.2868,"RA_OF_ASC_NODE":313.6516,"ARG_OF_PERICENTER":67.8152,"MEAN_ANOMALY":292.3495,"EPHEMERIS_TYPE":0,"CLASSIFICATION_TYPE":"U","NORAD_CAT_ID":56193,"ELEMENT_SET_NO":999,"REV_AT_EPOCH":16135,"BSTAR":0.00031387073,"MEAN_MOTION_DOT":8.039e-5,"MEAN_MOTION_DDOT":0},{"OBJECT_NAME":"HAWK-7C","OBJECT_ID":"2023-054Y","EPOCH":"2026-03-06T09:51:20.028672","MEAN_MOTION":15.2614873,"ECCENTRICITY":0.0003855,"INCLINATION":97.2841,"RA_OF_ASC_NODE":314.39,"ARG_OF_PERICENTER":58.9781,"MEAN_ANOMALY":301.1836,"EPHEMERIS_TYPE":0,"CLASSIFICATION_TYPE":"U","NORAD_CAT_ID":56200,"ELEMENT_SET_NO":999,"REV_AT_EPOCH":16134,"BSTAR":0.0003072093,"MEAN_MOTION_DOT":7.866e-5,"MEAN_MOTION_DDOT":0}]
